NORAD_CAT_ID,OBJECT_NAME,OBJECT_TYPE,EPOCH,MEAN_MOTION,ECCENTRICITY,INCLINATION,RA_OF_ASC_NODE,ARG_OF_PERICENTER,MEAN_ANOMALY,BSTAR,MEAN_MOTION_DOT,MEAN_MOTION_DDOT,TLE_LINE0,TLE_LINE1,TLE_LINE2,SEMIMAJOR_AXIS,PERIOD,APOGEE,PERIGEE,DECAYED
53899.0,STARLINK-5042,PAYLOAD,2023-10-11 09:31:00,15.08830605,0.0001731,53.2183,315.6727,93.9335,266.1855,-2.1611e-05,-6.32e-06,0.0,0 STARLINK-5042,1 53899U 22119P   23284.39653507 -.00000632  00000-0 -21611-4 0  9994,2 53899  53.2183 315.6727 0001731  93.9335 266.1855 15.08830605 58791,6917.909,95.438,540.972,538.577,0.0
53899.0,STARLINK-5042,PAYLOAD,2023-10-11 12:41:46,15.08838198,0.0001743,53.2188,315.0749,85.9564,274.1628,2.1605e-05,5.6e-07,0.0,0 STARLINK-5042,1 53899U 22119P   23284.52900935  .00000056  00000-0  21605-4 0  9990,2 53899  53.2188 315.0749 0001743  85.9564 274.1628 15.08838198 58390,6917.886,95.438,540.957,538.545,0.0
53899.0,STARLINK-5042,PAYLOAD,2023-10-12 09:21:46,15.08847134,0.0001763,53.2181,311.2084,96.2148,263.9045,0.00012215,1.657e-05,0.0,0 STARLINK-5042,1 53899U 22119P   23285.39012512  .00001657  00000-0  12215-3 0  9995,2 53899  53.2181 311.2084 0001763  96.2148 263.9045 15.08847134 58948,6917.859,95.437,540.943,538.504,0.0
53899.0,STARLINK-5042,PAYLOAD,2023-10-12 18:54:05,15.08844491,0.000168,53.2169,309.4249,93.5999,266.5185,0.00011109,1.481e-05,0.0,0 STARLINK-5042,1 53899U 22119P   23285.78756650  .00001481  00000-0  11109-3 0  9992,2 53899  53.2169 309.4249 0001680  93.5999 266.5185 15.08844491 58585,6917.867,95.437,540.894,538.569,0.0
53899.0,STARLINK-5042,PAYLOAD,2023-10-13 10:47:57,15.08848993,0.0001835,53.2171,306.4506,89.8868,270.2335,0.00027954,4.165e-05,0.0,0 STARLINK-5042,1 53899U 22119P   23286.44996611  .00004165  00000-0  27954-3 0  9996,2 53899  53.2171 306.4506 0001835  89.8868 270.2335 15.08848993 59105,6917.853,95.437,540.987,538.448,0.0
53899.0,STARLINK-5042,PAYLOAD,2023-10-14 01:06:25,15.08843862,0.0002182,53.2186,303.7743,109.7991,250.3237,0.00015684,2.209e-05,0.0,0 STARLINK-5042,1 53899U 22119P   23287.04612755  .00002209  00000-0  15684-3 0  9991,2 53899  53.2186 303.7743 0002182 109.7991 250.3237 15.08843862 58771,6917.869,95.437,541.243,538.224,0.0
53899.0,STARLINK-5042,PAYLOAD,2023-10-14 10:38:43,15.08851336,0.0002312,53.2177,301.9889,109.7547,250.3695,0.00013477,1.858e-05,0.0,0 STARLINK-5042,1 53899U 22119P   23287.44356321  .00001858  00000-0  13477-3 0  9996,2 53899  53.2177 301.9889 0002312 109.7547 250.3695 15.08851336 59251,6917.846,95.437,541.31,538.111,0.0
53899.0,STARLINK-5042,PAYLOAD,2023-10-14 18:35:40,15.08835998,0.0001869,53.2178,300.5012,97.9124,262.208,-2.3733e-05,-6.66e-06,0.0,0 STARLINK-5042,1 53899U 22119P   23287.77477111 -.00000666  00000-0 -23733-4 0  9998,2 53899  53.2178 300.5012 0001869  97.9124 262.2080 15.08835998 58884,6917.893,95.438,541.051,538.465,0.0
53899.0,STARLINK-5042,PAYLOAD,2023-10-15 07:18:45,15.088342,0.0001811,53.2179,298.1243,94.9032,265.2167,-0.00010685,-1.988e-05,0.0,0 STARLINK-5042,1 53899U 22119P   23288.30469479 -.00001988  00000-0 -10685-3 0  9995,2 53899  53.2179 298.1243 0001811  94.9032 265.2167 15.08834200 59385,6917.898,95.438,541.016,538.51,0.0
53899.0,STARLINK-5042,PAYLOAD,2023-10-16 03:58:46,15.08845837,0.0001751,53.2173,294.2593,92.3437,267.7755,0.00018836,2.711e-05,0.0,0 STARLINK-5042,1 53899U 22119P   23289.16581292  .00002711  00000-0  18836-3 0  9997,2 53899  53.2173 294.2593 0001751  92.3437 267.7755 15.08845837 59094,6917.863,95.437,540.939,538.516,0.0
53899.0,STARLINK-5042,PAYLOAD,2023-10-16 10:20:18,15.08852912,0.0001646,53.2168,293.0698,94.311,265.807,0.00043996,6.723e-05,0.0,0 STARLINK-5042,1 53899U 22119P   23289.43077094  .00006723  00000-0  43996-3 0  9999,2 53899  53.2168 293.0698 0001646  94.3110 265.8070 15.08852912 59556,6917.841,95.437,540.845,538.567,0.0
53899.0,STARLINK-5042,PAYLOAD,2023-10-17 10:11:05,15.08849471,0.0001519,53.2166,288.6063,92.1077,268.0089,0.00030953,4.643e-05,0.0,0 STARLINK-5042,1 53899U 22119P   23290.42437144  .00004643  00000-0  30953-3 0  9994,2 53899  53.2166 288.6063 0001519  92.1077 268.0089 15.08849471 59288,6917.851,95.437,540.767,538.666,0.0
53899.0,STARLINK-5042,PAYLOAD,2023-10-18 00:29:34,15.08839439,0.0001535,53.2157,285.928,89.1333,270.9835,-3.1651e-05,-7.92e-06,0.0,0 STARLINK-5042,1 53899U 22119P   23291.02053400 -.00000792  00000-0 -31651-4 0  9990,2 53899  53.2157 285.9280 0001535  89.1333 270.9835 15.08839439 59372,6917.882,95.438,540.809,538.685,0.0
53899.0,STARLINK-5042,PAYLOAD,2023-10-18 06:51:06,15.08842205,0.0001445,53.2162,284.7415,89.6586,270.4571,2.3422e-05,8.5e-07,0.0,0 STARLINK-5042,1 53899U 22119P   23291.28549323  .00000085  00000-0  23422-4 0  9992,2 53899  53.2162 284.7415 0001445  89.6586 270.4571 15.08842205 59838,6917.874,95.437,540.738,538.739,0.0
53899.0,STARLINK-5042,PAYLOAD,2023-10-19 03:31:07,15.08844127,0.0001473,53.2164,280.8771,96.7247,263.3912,0.00010299,1.352e-05,0.0,0 STARLINK-5042,1 53899U 22119P   23292.14661424  .00001352  00000-0  10299-3 0  9990,2 53899  53.2164 280.8771 0001473  96.7247 263.3912 15.08844127 59549,6917.868,95.437,540.752,538.714,0.0
53899.0,STARLINK-5042,PAYLOAD,2023-10-19 08:17:16,15.08849632,0.0001496,53.2163,279.9854,98.4984,261.6178,0.00028083,4.185e-05,0.0,0 STARLINK-5042,1 53899U 22119P   23292.34533193  .00004185  00000-0  28083-3 0  9990,2 53899  53.2163 279.9854 0001496  98.4984 261.6178 15.08849632 59991,6917.851,95.437,540.751,538.681,0.0
53899.0,STARLINK-5042,PAYLOAD,2023-10-19 16:14:12,15.08838684,0.0001678,53.2172,278.4997,103.3102,256.8077,7.0621e-05,8.36e-06,0.0,0 STARLINK-5042,1 53899U 22119P   23292.67653576  .00000836  00000-0  70621-4 0  9999,2 53899  53.2172 278.4997 0001678 103.3102 256.8077 15.08838684 60040,6917.884,95.438,540.91,538.589,0.0
53899.0,STARLINK-5042,PAYLOAD,2023-10-20 08:08:03,15.08847372,0.000166,53.2167,275.5249,96.1252,263.993,0.00025098,3.709e-05,0.0,0 STARLINK-5042,1 53899U 22119P   23293.33893409  .00003709  00000-0  25098-3 0  9993,2 53899  53.2167 275.5249 0001660  96.1252 263.9930 15.08847372 60140,6917.858,95.437,540.871,538.574,0.0
53899.0,STARLINK-5042,PAYLOAD,2023-10-20 22:26:32,15.08837462,0.0001693,53.2161,272.8489,96.3837,263.7348,5.4873e-05,5.85e-06,0.0,0 STARLINK-5042,1 53899U 22119P   23293.93509966  .00000585  00000-0  54873-4 0  9994,2 53899  53.2161 272.8489 0001693  96.3837 263.7348 15.08837462 60237,6917.888,95.438,540.924,538.582,0.0
53899.0,STARLINK-5042,PAYLOAD,2023-10-21 03:12:41,15.08838335,0.0001972,53.2165,271.9533,115.5478,244.5718,2.7708e-05,1.53e-06,0.0,0 STARLINK-5042,1 53899U 22119P   23294.13381855  .00000153  00000-0  27708-4 0  9990,2 53899  53.2165 271.9533 0001972 115.5478 244.5718 15.08838335 59849,6917.885,95.438,541.115,538.386,0.0
53899.0,STARLINK-5042,PAYLOAD,2023-10-21 06:23:28,15.08837381,0.000156,53.2165,271.3621,88.8757,271.2414,0.00010294,1.351e-05,0.0,0 STARLINK-5042,1 53899U 22119P   23294.26630204  .00001351  00000-0  10294-3 0  9991,2 53899  53.2165 271.3621 0001560  88.8757 271.2414 15.08837381 60286,6917.888,95.438,540.833,538.674,0.0
53899.0,STARLINK-5042,PAYLOAD,2023-10-21 15:55:47,15.08843058,0.0001499,53.2166,269.5777,93.1697,266.9467,0.00020398,2.96e-05,0.0,0 STARLINK-5042,1 53899U 22119P   23294.66374019  .00002960  00000-0  20398-3 0  9997,2 53899  53.2166 269.5777 0001499  93.1697 266.9467 15.08843058 60345,6917.871,95.437,540.773,538.699,0.0
53899.0,STARLINK-5042,PAYLOAD,2023-10-22 04:38:51,15.0885834,0.0001442,53.2157,267.1971,95.6854,264.4303,0.00068363,0.00010614,0.0,0 STARLINK-5042,1 53899U 22119P   23295.19365494  .00010614  00000-0  68363-3 0  9992,2 53899  53.2157 267.1971 0001442  95.6854 264.4303 15.08858340 60000,6917.824,95.436,540.687,538.692,0.0
53899.0,STARLINK-5042,PAYLOAD,2023-10-22 15:46:33,15.08844167,0.0001668,53.2169,265.1138,99.3748,260.7432,0.00021959,3.209e-05,0.0,0 STARLINK-5042,1 53899U 22119P   23295.65733754  .00003209  00000-0  21959-3 0  9993,2 53899  53.2169 265.1138 0001668  99.3748 260.7432 15.08844167 60070,6917.868,95.437,540.887,538.579,0.0
53899.0,STARLINK-5042,PAYLOAD,2023-10-23 04:29:39,15.08832045,0.0001792,53.2181,262.7351,104.2354,255.8837,-0.00016466,-2.907e-05,0.0,0 STARLINK-5042,1 53899U 22119P   23296.18726214 -.00002907  00000-0 -16466-3 0  9998,2 53899  53.2181 262.7351 0001792 104.2354 255.8837 15.08832045 60156,6917.905,95.438,541.009,538.53,0.0
53899.0,STARLINK-5042,PAYLOAD,2023-10-24 02:45:03,15.0885094,0.0001658,53.217,258.5716,98.0128,262.1052,0.00030852,4.627e-05,0.0,0 STARLINK-5042,1 53899U 22119P   23297.11461871  .00004627  00000-0  30852-3 0  9991,2 53899  53.2170 258.5716 0001658  98.0128 262.1052 15.08850940 60291,6917.847,95.437,540.859,538.565,0.0
53899.0,STARLINK-5042,PAYLOAD,2023-10-24 04:20:26,15.08851867,0.0001614,53.2172,258.2772,82.106,278.0115,0.0004962,7.62e-05,0.0,0 STARLINK-5042,1 53899U 22119P   23297.18086045  .00007620  00000-0  49620-3 0  9993,2 53899  53.2172 258.2772 0001614  82.1060 278.0115 15.08851867 60726,6917.844,95.437,540.826,538.593,0.0
53899.0,STARLINK-5042,PAYLOAD,2023-10-25 05:46:36,15.08857299,0.0001601,53.217,253.5206,93.0615,267.0561,0.00064558,0.00010006,0.0,0 STARLINK-5042,1 53899U 22119P   23298.24069816  .00010006  00000-0  64558-3 0  9997,2 53899  53.2170 253.5206 0001601  93.0615 267.0561 15.08857299 60466,6917.828,95.436,540.8,538.585,0.0
53899.0,STARLINK-5042,PAYLOAD,2023-10-26 02:26:37,15.08841083,0.0001773,53.2177,249.655,91.2886,268.8309,0.0005481,8.446e-05,0.0,0 STARLINK-5042,1 53899U 22119P   23299.10182280  .00008446  00000-0  54810-3 0  9999,2 53899  53.2177 249.6550 0001773  91.2886 268.8309 15.08841083 60598,6917.877,95.437,540.969,538.516,0.0
53899.0,STARLINK-5042,PAYLOAD,2023-10-26 05:37:23,15.08845154,0.000163,53.2171,249.0591,88.5624,271.5555,0.00040239,6.123e-05,0.0,0 STARLINK-5042,1 53899U 22119P   23299.23430127  .00006123  00000-0  40239-3 0  9999,2 53899  53.2171 249.0591 0001630  88.5624 271.5555 15.08845154 61039,6917.865,95.437,540.857,538.602,0.0
